CCSDS_OMM_VERS = 2.0
CREATION_DATE  = 
ORIGINATOR     = 

OBJECT_NAME    = UNKNOWN
OBJECT_ID      = 
CENTER_NAME    = EARTH
REF_FRAME      = TEME
TIME_SYSTEM    = UTC
MEAN_ELEMENT_THEORY = SGP/SGP4

EPOCH          = 2026-02-21T12:57:55.986912
MEAN_MOTION    = 14.14656215
ECCENTRICITY   = .0076654
INCLINATION    = 66.6606
RA_OF_ASC_NODE = 22.2114
ARG_OF_PERICENTER = 14.5408
MEAN_ANOMALY   = 345.7862

EPHEMERIS_TYPE = 0
CLASSIFICATION_TYPE = U
NORAD_CAT_ID   = 270335
ELEMENT_SET_NO = 999
REV_AT_EPOCH   = 24718
BSTAR          = .24386005E-3
MEAN_MOTION_DOT = .4E-5
MEAN_MOTION_DDOT = 0

CCSDS_OMM_VERS = 2.0
CREATION_DATE  = 
ORIGINATOR     = 

OBJECT_NAME    = UNKNOWN
OBJECT_ID      = 
CENTER_NAME    = EARTH
REF_FRAME      = TEME
TIME_SYSTEM    = UTC
MEAN_ELEMENT_THEORY = SGP/SGP4

EPOCH          = 2026-03-14T12:46:39.121536
MEAN_MOTION    = 13.04773254
ECCENTRICITY   = .00346789
INCLINATION    = 90.1558
RA_OF_ASC_NODE = 6.3447
ARG_OF_PERICENTER = 5.6119
MEAN_ANOMALY   = 354.5388

EPHEMERIS_TYPE = 0
CLASSIFICATION_TYPE = U
NORAD_CAT_ID   = 270337
ELEMENT_SET_NO = 999
REV_AT_EPOCH   = 22999
BSTAR          = -.11054722E-3
MEAN_MOTION_DOT = -.28E-6
MEAN_MOTION_DDOT = 0

CCSDS_OMM_VERS = 2.0
CREATION_DATE  = 
ORIGINATOR     = 

OBJECT_NAME    = UNKNOWN
OBJECT_ID      = 
CENTER_NAME    = EARTH
REF_FRAME      = TEME
TIME_SYSTEM    = UTC
MEAN_ELEMENT_THEORY = SGP/SGP4

EPOCH          = 2026-02-15T21:02:32.487360
MEAN_MOTION    = 13.83860376
ECCENTRICITY   = .01455267
INCLINATION    = 98.8087
RA_OF_ASC_NODE = 285.3012
ARG_OF_PERICENTER = 309.6389
MEAN_ANOMALY   = 49.1999

EPHEMERIS_TYPE = 0
CLASSIFICATION_TYPE = U
NORAD_CAT_ID   = 270340
ELEMENT_SET_NO = 999
REV_AT_EPOCH   = 23675
BSTAR          = .33011593E-3
MEAN_MOTION_DOT = .356E-5
MEAN_MOTION_DDOT = 0

CCSDS_OMM_VERS = 2.0
CREATION_DATE  = 
ORIGINATOR     = 

OBJECT_NAME    = UNKNOWN
OBJECT_ID      = 
CENTER_NAME    = EARTH
REF_FRAME      = TEME
TIME_SYSTEM    = UTC
MEAN_ELEMENT_THEORY = SGP/SGP4

EPOCH          = 2026-03-14T00:17:07.650240
MEAN_MOTION    = 14.21853782
ECCENTRICITY   = .01019721
INCLINATION    = 98.6807
RA_OF_ASC_NODE = 342.8139
ARG_OF_PERICENTER = 17.8525
MEAN_ANOMALY   = 342.6193

EPHEMERIS_TYPE = 0
CLASSIFICATION_TYPE = U
NORAD_CAT_ID   = 270342
ELEMENT_SET_NO = 999
REV_AT_EPOCH   = 23555
BSTAR          = .24190786E-2
MEAN_MOTION_DOT = .558E-4
MEAN_MOTION_DDOT = 0

CCSDS_OMM_VERS = 2.0
CREATION_DATE  = 
ORIGINATOR     = 

OBJECT_NAME    = UNKNOWN
OBJECT_ID      = 
CENTER_NAME    = EARTH
REF_FRAME      = TEME
TIME_SYSTEM    = UTC
MEAN_ELEMENT_THEORY = SGP/SGP4

EPOCH          = 2026-02-27T16:43:35.727456
MEAN_MOTION    = 12.45590455
ECCENTRICITY   = .07156716
INCLINATION    = 83.4004
RA_OF_ASC_NODE = 42.4572
ARG_OF_PERICENTER = 169.4433
MEAN_ANOMALY   = 192.2634

EPHEMERIS_TYPE = 0
CLASSIFICATION_TYPE = U
NORAD_CAT_ID   = 270343
ELEMENT_SET_NO = 999
REV_AT_EPOCH   = 20362
BSTAR          = .13526707E-2
MEAN_MOTION_DOT = .5E-5
MEAN_MOTION_DDOT = 0

CCSDS_OMM_VERS = 2.0
CREATION_DATE  = 
ORIGINATOR     = 

OBJECT_NAME    = UNKNOWN
OBJECT_ID      = 
CENTER_NAME    = EARTH
REF_FRAME      = TEME
TIME_SYSTEM    = UTC
MEAN_ELEMENT_THEORY = SGP/SGP4

EPOCH          = 2026-03-07T03:18:42.609888
MEAN_MOTION    = 13.06608885
ECCENTRICITY   = .02637621
INCLINATION    = 105.8390
RA_OF_ASC_NODE = 212.5330
ARG_OF_PERICENTER = 328.7653
MEAN_ANOMALY   = 29.7988

EPHEMERIS_TYPE = 0
CLASSIFICATION_TYPE = U
NORAD_CAT_ID   = 270344
ELEMENT_SET_NO = 999
REV_AT_EPOCH   = 21311
BSTAR          = .16368677E-2
MEAN_MOTION_DOT = .56E-5
MEAN_MOTION_DDOT = 0

CCSDS_OMM_VERS = 2.0
CREATION_DATE  = 
ORIGINATOR     = 

OBJECT_NAME    = UNKNOWN
OBJECT_ID      = 
CENTER_NAME    = EARTH
REF_FRAME      = TEME
TIME_SYSTEM    = UTC
MEAN_ELEMENT_THEORY = SGP/SGP4

EPOCH          = 2026-03-05T13:03:02.842560
MEAN_MOTION    = 12.98386645
ECCENTRICITY   = .00296474
INCLINATION    = 90.2380
RA_OF_ASC_NODE = 354.6124
ARG_OF_PERICENTER = 311.1429
MEAN_ANOMALY   = 48.7135

EPHEMERIS_TYPE = 0
CLASSIFICATION_TYPE = U
NORAD_CAT_ID   = 270346
ELEMENT_SET_NO = 999
REV_AT_EPOCH   = 20491
BSTAR          = .1425636E-2
MEAN_MOTION_DOT = .427E-5
MEAN_MOTION_DDOT = 0

CCSDS_OMM_VERS = 2.0
CREATION_DATE  = 
ORIGINATOR     = 

OBJECT_NAME    = UNKNOWN
OBJECT_ID      = 
CENTER_NAME    = EARTH
REF_FRAME      = TEME
TIME_SYSTEM    = UTC
MEAN_ELEMENT_THEORY = SGP/SGP4

EPOCH          = 2026-03-14T07:00:54.630144
MEAN_MOTION    = 13.04819618
ECCENTRICITY   = .00946316
INCLINATION    = 82.6829
RA_OF_ASC_NODE = 270.7457
ARG_OF_PERICENTER = 175.1493
MEAN_ANOMALY   = 185.0563

EPHEMERIS_TYPE = 0
CLASSIFICATION_TYPE = U
NORAD_CAT_ID   = 270347
ELEMENT_SET_NO = 999
REV_AT_EPOCH   = 13315
BSTAR          = .29647146E-2
MEAN_MOTION_DOT = .988E-5
MEAN_MOTION_DDOT = 0

CCSDS_OMM_VERS = 2.0
CREATION_DATE  = 
ORIGINATOR     = 

OBJECT_NAME    = UNKNOWN
OBJECT_ID      = 
CENTER_NAME    = EARTH
REF_FRAME      = TEME
TIME_SYSTEM    = UTC
MEAN_ELEMENT_THEORY = SGP/SGP4

EPOCH          = 2026-03-14T14:57:01.126080
MEAN_MOTION    = 13.21086734
ECCENTRICITY   = .0023152
INCLINATION    = 82.5487
RA_OF_ASC_NODE = 194.3345
ARG_OF_PERICENTER = 294.9495
MEAN_ANOMALY   = 64.9224

EPHEMERIS_TYPE = 0
CLASSIFICATION_TYPE = U
NORAD_CAT_ID   = 270349
ELEMENT_SET_NO = 999
REV_AT_EPOCH   = 19334
BSTAR          = .39978209E-3
MEAN_MOTION_DOT = .176E-5
MEAN_MOTION_DDOT = 0

CCSDS_OMM_VERS = 2.0
CREATION_DATE  = 
ORIGINATOR     = 

OBJECT_NAME    = UNKNOWN
OBJECT_ID      = 
CENTER_NAME    = EARTH
REF_FRAME      = TEME
TIME_SYSTEM    = UTC
MEAN_ELEMENT_THEORY = SGP/SGP4

EPOCH          = 2026-03-15T04:30:12.819168
MEAN_MOTION    = 2.01237557
ECCENTRICITY   = .74908134
INCLINATION    = 62.1556
RA_OF_ASC_NODE = 95.8956
ARG_OF_PERICENTER = 49.2936
MEAN_ANOMALY   = 354.9673

EPHEMERIS_TYPE = 0
CLASSIFICATION_TYPE = U
NORAD_CAT_ID   = 270365
ELEMENT_SET_NO = 999
REV_AT_EPOCH   = 1922
BSTAR          = .47460046E-2
MEAN_MOTION_DOT = .10652E-3
MEAN_MOTION_DDOT = 0

CCSDS_OMM_VERS = 2.0
CREATION_DATE  = 
ORIGINATOR     = 

OBJECT_NAME    = UNKNOWN
OBJECT_ID      = 
CENTER_NAME    = EARTH
REF_FRAME      = TEME
TIME_SYSTEM    = UTC
MEAN_ELEMENT_THEORY = SGP/SGP4

EPOCH          = 2026-03-14T17:12:43.170912
MEAN_MOTION    = 13.15686361
ECCENTRICITY   = .01094672
INCLINATION    = 102.9784
RA_OF_ASC_NODE = 231.0582
ARG_OF_PERICENTER = 143.8321
MEAN_ANOMALY   = 217.0247

EPHEMERIS_TYPE = 0
CLASSIFICATION_TYPE = U
NORAD_CAT_ID   = 270376
ELEMENT_SET_NO = 999
REV_AT_EPOCH   = 15472
BSTAR          = .18936588E-1
MEAN_MOTION_DOT = .7319E-4
MEAN_MOTION_DDOT = 0

CCSDS_OMM_VERS = 2.0
CREATION_DATE  = 
ORIGINATOR     = 

OBJECT_NAME    = UNKNOWN
OBJECT_ID      = 
CENTER_NAME    = EARTH
REF_FRAME      = TEME
TIME_SYSTEM    = UTC
MEAN_ELEMENT_THEORY = SGP/SGP4

EPOCH          = 2026-03-14T06:47:48.240672
MEAN_MOTION    = 13.20274875
ECCENTRICITY   = .0421251
INCLINATION    = 82.5426
RA_OF_ASC_NODE = 272.5983
ARG_OF_PERICENTER = 23.7167
MEAN_ANOMALY   = 338.2759

EPHEMERIS_TYPE = 0
CLASSIFICATION_TYPE = U
NORAD_CAT_ID   = 270378
ELEMENT_SET_NO = 999
REV_AT_EPOCH   = 15354
BSTAR          = .10732812E-2
MEAN_MOTION_DOT = .702E-5
MEAN_MOTION_DDOT = 0

CCSDS_OMM_VERS = 2.0
CREATION_DATE  = 
ORIGINATOR     = 

OBJECT_NAME    = UNKNOWN
OBJECT_ID      = 
CENTER_NAME    = EARTH
REF_FRAME      = TEME
TIME_SYSTEM    = UTC
MEAN_ELEMENT_THEORY = SGP/SGP4

EPOCH          = 2026-03-14T19:19:18.078240
MEAN_MOTION    = 14.19818053
ECCENTRICITY   = .00083374
INCLINATION    = 81.2094
RA_OF_ASC_NODE = 21.2523
ARG_OF_PERICENTER = 232.8051
MEAN_ANOMALY   = 127.2364

EPHEMERIS_TYPE = 0
CLASSIFICATION_TYPE = U
NORAD_CAT_ID   = 270387
ELEMENT_SET_NO = 999
REV_AT_EPOCH   = 14665
BSTAR          = .11768723E-2
MEAN_MOTION_DOT = .2506E-4
MEAN_MOTION_DDOT = 0

CCSDS_OMM_VERS = 2.0
CREATION_DATE  = 
ORIGINATOR     = 

OBJECT_NAME    = UNKNOWN
OBJECT_ID      = 
CENTER_NAME    = EARTH
REF_FRAME      = TEME
TIME_SYSTEM    = UTC
MEAN_ELEMENT_THEORY = SGP/SGP4

EPOCH          = 2026-03-14T14:14:46.442112
MEAN_MOTION    = 14.03208765
ECCENTRICITY   = .01268461
INCLINATION    = 89.1808
RA_OF_ASC_NODE = 299.3534
ARG_OF_PERICENTER = 163.9264
MEAN_ANOMALY   = 196.6000

EPHEMERIS_TYPE = 0
CLASSIFICATION_TYPE = U
NORAD_CAT_ID   = 270408
ELEMENT_SET_NO = 999
REV_AT_EPOCH   = 3237
BSTAR          = .15351739E-3
MEAN_MOTION_DOT = .271E-5
MEAN_MOTION_DDOT = 0

CCSDS_OMM_VERS = 2.0
CREATION_DATE  = 
ORIGINATOR     = 

OBJECT_NAME    = UNKNOWN
OBJECT_ID      = 
CENTER_NAME    = EARTH
REF_FRAME      = TEME
TIME_SYSTEM    = UTC
MEAN_ELEMENT_THEORY = SGP/SGP4

EPOCH          = 2026-03-15T00:12:36.989280
MEAN_MOTION    = 14.71251467
ECCENTRICITY   = .01431808
INCLINATION    = 88.7420
RA_OF_ASC_NODE = 261.2741
ARG_OF_PERICENTER = 151.3407
MEAN_ANOMALY   = 209.5778

EPHEMERIS_TYPE = 0
CLASSIFICATION_TYPE = U
NORAD_CAT_ID   = 270413
ELEMENT_SET_NO = 999
REV_AT_EPOCH   = 8544
BSTAR          = .89673281E-3
MEAN_MOTION_DOT = .652E-4
MEAN_MOTION_DDOT = 0

CCSDS_OMM_VERS = 2.0
CREATION_DATE  = 
ORIGINATOR     = 

OBJECT_NAME    = UNKNOWN
OBJECT_ID      = 
CENTER_NAME    = EARTH
REF_FRAME      = TEME
TIME_SYSTEM    = UTC
MEAN_ELEMENT_THEORY = SGP/SGP4

EPOCH          = 2026-03-12T10:51:33.986880
MEAN_MOTION    = 14.68268649
ECCENTRICITY   = .01272386
INCLINATION    = 88.4808
RA_OF_ASC_NODE = 243.5742
ARG_OF_PERICENTER = 143.4246
MEAN_ANOMALY   = 217.5745

EPHEMERIS_TYPE = 0
CLASSIFICATION_TYPE = U
NORAD_CAT_ID   = 270425
ELEMENT_SET_NO = 999
REV_AT_EPOCH   = 8322
BSTAR          = .21322125E-2
MEAN_MOTION_DOT = .13937E-3
MEAN_MOTION_DDOT = 0

